ORBCOMM FM16            
1 25417U 98046E   25116.94265888  .00003364  00000+0  11305-2 0  9998
2 25417  44.9934  56.1681 0005106  20.7305 339.3749 14.38759424396878
ORBCOMM FM15            
1 25418U 98046F   25116.90618776  .00002736  00000+0  93486-3 0  9996
2 25418  44.9968  61.3335 0004689  18.4875 341.6143 14.38407758396864
ORBCOMM FM13            
1 25420U 98046H   25116.86785576  .00002604  00000+0  90755-3 0  9997
2 25420  44.9969  67.3809 0005989   3.9924 356.0971 14.37545509395851
ORBCOMM FM21            
1 25475U 98053A   25116.79326797  .00001477  00000+0  53842-3 0  9996
2 25475  45.0069 152.8574 0003187 285.7150  74.3346 14.37237640390183
ORBCOMM FM22            
1 25476U 98053B   25116.79746375  .00002083  00000+0  72531-3 0  9995
2 25476  45.0050 148.0987 0004867 300.1807  59.8559 14.38239768389878
